CCSDS_OMM_VERS = 2.0
CREATION_DATE  = 
ORIGINATOR     = 

OBJECT_NAME    = STARLINK-35898
OBJECT_ID      = 2025-280F
CENTER_NAME    = EARTH
REF_FRAME      = TEME
TIME_SYSTEM    = UTC
MEAN_ELEMENT_THEORY = SGP/SGP4

EPOCH          = 2025-12-17T22:00:01.999584
MEAN_MOTION    = 15.60183525
ECCENTRICITY   = .00036541
INCLINATION    = 69.9989
RA_OF_ASC_NODE = 184.2537
ARG_OF_PERICENTER = 279.5320
MEAN_ANOMALY   = 199.2483

EPHEMERIS_TYPE = 0
CLASSIFICATION_TYPE = U
NORAD_CAT_ID   = 66826
ELEMENT_SET_NO = 999
REV_AT_EPOCH   = 373
BSTAR          = -.26885704E-1
MEAN_MOTION_DOT = -.193914E-1
MEAN_MOTION_DDOT = 0

CCSDS_OMM_VERS = 2.0
CREATION_DATE  = 
ORIGINATOR     = 

OBJECT_NAME    = STARLINK-35959
OBJECT_ID      = 2025-280G
CENTER_NAME    = EARTH
REF_FRAME      = TEME
TIME_SYSTEM    = UTC
MEAN_ELEMENT_THEORY = SGP/SGP4

EPOCH          = 2025-12-17T22:00:01.999584
MEAN_MOTION    = 15.60191793
ECCENTRICITY   = .00036609
INCLINATION    = 69.9989
RA_OF_ASC_NODE = 184.2516
ARG_OF_PERICENTER = 278.5273
MEAN_ANOMALY   = 202.1665

EPHEMERIS_TYPE = 0
CLASSIFICATION_TYPE = U
NORAD_CAT_ID   = 66827
ELEMENT_SET_NO = 999
REV_AT_EPOCH   = 373
BSTAR          = -.27109109E-1
MEAN_MOTION_DOT = -.1953895E-1
MEAN_MOTION_DDOT = 0

CCSDS_OMM_VERS = 2.0
CREATION_DATE  = 
ORIGINATOR     = 

OBJECT_NAME    = STARLINK-35982
OBJECT_ID      = 2025-280H
CENTER_NAME    = EARTH
REF_FRAME      = TEME
TIME_SYSTEM    = UTC
MEAN_ELEMENT_THEORY = SGP/SGP4

EPOCH          = 2025-12-17T22:00:01.999584
MEAN_MOTION    = 15.60189030
ECCENTRICITY   = .00035586
INCLINATION    = 69.9990
RA_OF_ASC_NODE = 184.2471
ARG_OF_PERICENTER = 278.3295
MEAN_ANOMALY   = 206.1989

EPHEMERIS_TYPE = 0
CLASSIFICATION_TYPE = U
NORAD_CAT_ID   = 66828
ELEMENT_SET_NO = 999
REV_AT_EPOCH   = 373
BSTAR          = -.27038659E-1
MEAN_MOTION_DOT = -.1949145E-1
MEAN_MOTION_DDOT = 0

CCSDS_OMM_VERS = 2.0
CREATION_DATE  = 
ORIGINATOR     = 

OBJECT_NAME    = STARLINK-36084
OBJECT_ID      = 2025-280J
CENTER_NAME    = EARTH
REF_FRAME      = TEME
TIME_SYSTEM    = UTC
MEAN_ELEMENT_THEORY = SGP/SGP4

EPOCH          = 2025-12-17T22:00:01.999584
MEAN_MOTION    = 15.60185794
ECCENTRICITY   = .00036453
INCLINATION    = 69.9990
RA_OF_ASC_NODE = 184.2489
ARG_OF_PERICENTER = 279.4969
MEAN_ANOMALY   = 203.1160

EPHEMERIS_TYPE = 0
CLASSIFICATION_TYPE = U
NORAD_CAT_ID   = 66829
ELEMENT_SET_NO = 999
REV_AT_EPOCH   = 357
BSTAR          = -.26974193E-1
MEAN_MOTION_DOT = -.194491E-1
MEAN_MOTION_DDOT = 0

CCSDS_OMM_VERS = 2.0
CREATION_DATE  = 
ORIGINATOR     = 

OBJECT_NAME    = STARLINK-35881
OBJECT_ID      = 2025-280K
CENTER_NAME    = EARTH
REF_FRAME      = TEME
TIME_SYSTEM    = UTC
MEAN_ELEMENT_THEORY = SGP/SGP4

EPOCH          = 2025-12-17T22:00:01.999584
MEAN_MOTION    = 15.60186731
ECCENTRICITY   = .00035908
INCLINATION    = 69.9990
RA_OF_ASC_NODE = 184.2436
ARG_OF_PERICENTER = 279.6632
MEAN_ANOMALY   = 206.7820

EPHEMERIS_TYPE = 0
CLASSIFICATION_TYPE = U
NORAD_CAT_ID   = 66830
ELEMENT_SET_NO = 999
REV_AT_EPOCH   = 373
BSTAR          = -.26969184E-1
MEAN_MOTION_DOT = -.1944605E-1
MEAN_MOTION_DDOT = 0

CCSDS_OMM_VERS = 2.0
CREATION_DATE  = 
ORIGINATOR     = 

OBJECT_NAME    = STARLINK-35788
OBJECT_ID      = 2025-280L
CENTER_NAME    = EARTH
REF_FRAME      = TEME
TIME_SYSTEM    = UTC
MEAN_ELEMENT_THEORY = SGP/SGP4

EPOCH          = 2025-12-17T22:00:01.999584
MEAN_MOTION    = 15.60187833
ECCENTRICITY   = .00036513
INCLINATION    = 69.9992
RA_OF_ASC_NODE = 184.2427
ARG_OF_PERICENTER = 279.1573
MEAN_ANOMALY   = 209.2044

EPHEMERIS_TYPE = 0
CLASSIFICATION_TYPE = U
NORAD_CAT_ID   = 66831
ELEMENT_SET_NO = 999
REV_AT_EPOCH   = 373
BSTAR          = -.27010213E-1
MEAN_MOTION_DOT = -.194734E-1
MEAN_MOTION_DDOT = 0

CCSDS_OMM_VERS = 2.0
CREATION_DATE  = 
ORIGINATOR     = 

OBJECT_NAME    = STARLINK-35768
OBJECT_ID      = 2025-280M
CENTER_NAME    = EARTH
REF_FRAME      = TEME
TIME_SYSTEM    = UTC
MEAN_ELEMENT_THEORY = SGP/SGP4

EPOCH          = 2025-12-17T22:00:01.999584
MEAN_MOTION    = 15.60192356
ECCENTRICITY   = .00035201
INCLINATION    = 69.9993
RA_OF_ASC_NODE = 184.2397
ARG_OF_PERICENTER = 280.4182
MEAN_ANOMALY   = 209.8585

EPHEMERIS_TYPE = 0
CLASSIFICATION_TYPE = U
NORAD_CAT_ID   = 66832
ELEMENT_SET_NO = 999
REV_AT_EPOCH   = 373
BSTAR          = -.27150103E-1
MEAN_MOTION_DOT = -.1956409E-1
MEAN_MOTION_DDOT = 0

CCSDS_OMM_VERS = 2.0
CREATION_DATE  = 
ORIGINATOR     = 

OBJECT_NAME    = STARLINK-35858
OBJECT_ID      = 2025-280N
CENTER_NAME    = EARTH
REF_FRAME      = TEME
TIME_SYSTEM    = UTC
MEAN_ELEMENT_THEORY = SGP/SGP4

EPOCH          = 2025-12-17T22:00:01.999584
MEAN_MOTION    = 15.60192442
ECCENTRICITY   = .00034813
INCLINATION    = 69.9990
RA_OF_ASC_NODE = 184.2378
ARG_OF_PERICENTER = 279.3786
MEAN_ANOMALY   = 212.8151

EPHEMERIS_TYPE = 0
CLASSIFICATION_TYPE = U
NORAD_CAT_ID   = 66833
ELEMENT_SET_NO = 999
REV_AT_EPOCH   = 373
BSTAR          = -.27147124E-1
MEAN_MOTION_DOT = -.1956192E-1
MEAN_MOTION_DDOT = 0

CCSDS_OMM_VERS = 2.0
CREATION_DATE  = 
ORIGINATOR     = 

OBJECT_NAME    = STARLINK-35840
OBJECT_ID      = 2025-280P
CENTER_NAME    = EARTH
REF_FRAME      = TEME
TIME_SYSTEM    = UTC
MEAN_ELEMENT_THEORY = SGP/SGP4

EPOCH          = 2025-12-17T22:00:01.999584
MEAN_MOTION    = 15.60192189
ECCENTRICITY   = .00034759
INCLINATION    = 69.9988
RA_OF_ASC_NODE = 184.2347
ARG_OF_PERICENTER = 278.5543
MEAN_ANOMALY   = 215.5560

EPHEMERIS_TYPE = 0
CLASSIFICATION_TYPE = U
NORAD_CAT_ID   = 66834
ELEMENT_SET_NO = 999
REV_AT_EPOCH   = 373
BSTAR          = -.27133346E-1
MEAN_MOTION_DOT = -.1955296E-1
MEAN_MOTION_DDOT = 0

CCSDS_OMM_VERS = 2.0
CREATION_DATE  = 
ORIGINATOR     = 

OBJECT_NAME    = STARLINK-35890
OBJECT_ID      = 2025-280Q
CENTER_NAME    = EARTH
REF_FRAME      = TEME
TIME_SYSTEM    = UTC
MEAN_ELEMENT_THEORY = SGP/SGP4

EPOCH          = 2025-12-17T22:00:01.999584
MEAN_MOTION    = 15.60192365
ECCENTRICITY   = .00035525
INCLINATION    = 69.9990
RA_OF_ASC_NODE = 184.2327
ARG_OF_PERICENTER = 277.1983
MEAN_ANOMALY   = 218.8281

EPHEMERIS_TYPE = 0
CLASSIFICATION_TYPE = U
NORAD_CAT_ID   = 66835
ELEMENT_SET_NO = 999
REV_AT_EPOCH   = 373
BSTAR          = -.27147016E-1
MEAN_MOTION_DOT = -.1956243E-1
MEAN_MOTION_DDOT = 0

CCSDS_OMM_VERS = 2.0
CREATION_DATE  = 
ORIGINATOR     = 

OBJECT_NAME    = STARLINK-35838
OBJECT_ID      = 2025-280R
CENTER_NAME    = EARTH
REF_FRAME      = TEME
TIME_SYSTEM    = UTC
MEAN_ELEMENT_THEORY = SGP/SGP4

EPOCH          = 2025-12-17T22:00:01.999584
MEAN_MOTION    = 15.60193862
ECCENTRICITY   = .00034886
INCLINATION    = 69.9990
RA_OF_ASC_NODE = 184.2297
ARG_OF_PERICENTER = 278.3616
MEAN_ANOMALY   = 219.5797

EPHEMERIS_TYPE = 0
CLASSIFICATION_TYPE = U
NORAD_CAT_ID   = 66836
ELEMENT_SET_NO = 999
REV_AT_EPOCH   = 373
BSTAR          = -.27159662E-1
MEAN_MOTION_DOT = -.1957089E-1
MEAN_MOTION_DDOT = 0

CCSDS_OMM_VERS = 2.0
CREATION_DATE  = 
ORIGINATOR     = 

OBJECT_NAME    = STARLINK-35729
OBJECT_ID      = 2025-280S
CENTER_NAME    = EARTH
REF_FRAME      = TEME
TIME_SYSTEM    = UTC
MEAN_ELEMENT_THEORY = SGP/SGP4

EPOCH          = 2025-12-17T22:00:01.999584
MEAN_MOTION    = 15.60181596
ECCENTRICITY   = .00035543
INCLINATION    = 69.9992
RA_OF_ASC_NODE = 184.2266
ARG_OF_PERICENTER = 280.8024
MEAN_ANOMALY   = 219.0580

EPHEMERIS_TYPE = 0
CLASSIFICATION_TYPE = U
NORAD_CAT_ID   = 66837
ELEMENT_SET_NO = 999
REV_AT_EPOCH   = 373
BSTAR          = -.2678837E-1
MEAN_MOTION_DOT = -.1932729E-1
MEAN_MOTION_DDOT = 0

