STARLINK-35898          
1 66826U 25280F   25351.91668981 -.01939140  00000+0 -26886-1 0  9998
2 66826  69.9989 184.2537 0003654 279.5320 199.2483 15.60183525  3731
STARLINK-35959          
1 66827U 25280G   25351.91668981 -.01953895  00000+0 -27109-1 0  9991
2 66827  69.9989 184.2516 0003660 278.5273 202.1665 15.60191793  3734
STARLINK-35982          
1 66828U 25280H   25351.91668981 -.01949145  00000+0 -27039-1 0  9997
2 66828  69.9990 184.2471 0003558 278.3295 206.1989 15.60189030  3739
STARLINK-36084          
1 66829U 25280J   25351.91668981 -.01944910  00000+0 -26974-1 0  9990
2 66829  69.9990 184.2489 0003645 279.4969 203.1160 15.60185794  3579
STARLINK-35881          
1 66830U 25280K   25351.91668981 -.01944605  00000+0 -26969-1 0  9997
2 66830  69.9990 184.2436 0003590 279.6632 206.7820 15.60186731  3733
STARLINK-35788          
1 66831U 25280L   25351.91668981 -.01947340  00000+0 -27010-1 0  9995
2 66831  69.9992 184.2427 0003651 279.1573 209.2044 15.60187833  3733
STARLINK-35768          
1 66832U 25280M   25351.91668981 -.01956409  00000+0 -27150-1 0  9997
2 66832  69.9993 184.2397 0003520 280.4182 209.8585 15.60192356  3739
STARLINK-35858          
1 66833U 25280N   25351.91668981 -.01956192  00000+0 -27147-1 0  9993
2 66833  69.9990 184.2378 0003481 279.3786 212.8151 15.60192442  3738
STARLINK-35840          
1 66834U 25280P   25351.91668981 -.01955296  00000+0 -27133-1 0  9993
2 66834  69.9988 184.2347 0003475 278.5543 215.5560 15.60192189  3739
STARLINK-35890          
1 66835U 25280Q   25351.91668981 -.01956243  00000+0 -27147-1 0  9992
2 66835  69.9990 184.2327 0003552 277.1983 218.8281 15.60192365  3732
STARLINK-35838          
1 66836U 25280R   25351.91668981 -.01957089  00000+0 -27160-1 0  9997
2 66836  69.9990 184.2297 0003488 278.3616 219.5797 15.60193862  3736
STARLINK-35729          
1 66837U 25280S   25351.91668981 -.01932729  00000+0 -26788-1 0  9997
2 66837  69.9992 184.2266 0003554 280.8024 219.0580 15.60181596  3736
